[{"OBJECT_NAME":"STARLINK-30079","OBJECT_ID":"2023-067U","EPOCH":"2026-03-08T23:24:17.225568","MEAN_MOTION":15.02541537,"ECCENTRICITY":0.00013392,"INCLINATION":43.0031,"RA_OF_ASC_NODE":278.2482,"ARG_OF_PERICENTER":262.3232,"MEAN_ANOMALY":97.7458,"EPHEMERIS_TYPE":0,"CLASSIFICATION_TYPE":"U","NORAD_CAT_ID":56706,"ELEMENT_SET_NO":999,"REV_AT_EPOCH":15555,"BSTAR":6.8530294e-5,"MEAN_MOTION_DOT":7.22e-6,"MEAN_MOTION_DDOT":0},{"OBJECT_NAME":"HELIOS 2A","OBJECT_ID":"2004-049A","EPOCH":"2026-03-09T21:12:23.746752","MEAN_MOTION":15.02457036,"ECCENTRICITY":0.00022964,"INCLINATION":98.268,"RA_OF_ASC_NODE":116.0483,"ARG_OF_PERICENTER":298.4853,"MEAN_ANOMALY":61.6139,"EPHEMERIS_TYPE":0,"CLASSIFICATION_TYPE":"U","NORAD_CAT_ID":28492,"ELEMENT_SET_NO":999,"REV_AT_EPOCH":13885,"BSTAR":0.0002328623,"MEAN_MOTION_DOT":3.02e-5,"MEAN_MOTION_DDOT":0}]
